[{"OBJECT_NAME":"ONEWEB-0218","OBJECT_ID":"2021-031E","EPOCH":"2026-03-09T16:35:42.221760","MEAN_MOTION":13.14502317,"ECCENTRICITY":0.00024492,"INCLINATION":87.8988,"RA_OF_ASC_NODE":309.5462,"ARG_OF_PERICENTER":94.5208,"MEAN_ANOMALY":265.6202,"EPHEMERIS_TYPE":0,"CLASSIFICATION_TYPE":"U","NORAD_CAT_ID":48214,"ELEMENT_SET_NO":999,"REV_AT_EPOCH":23530,"BSTAR":-0.00042611497,"MEAN_MOTION_DOT":-1.45e-6,"MEAN_MOTION_DDOT":0},{"OBJECT_NAME":"SL-14 R\/B","OBJECT_ID":"1989-086B","EPOCH":"2026-03-09T22:32:59.060544","MEAN_MOTION":13.16273102,"ECCENTRICITY":0.00168726,"INCLINATION":82.5583,"RA_OF_ASC_NODE":8.8179,"ARG_OF_PERICENTER":153.4465,"MEAN_ANOMALY":272.9532,"EPHEMERIS_TYPE":0,"CLASSIFICATION_TYPE":"U","NORAD_CAT_ID":20306,"ELEMENT_SET_NO":999,"REV_AT_EPOCH":74734,"BSTAR":-0.00036791413,"MEAN_MOTION_DOT":-1.28e-6,"MEAN_MOTION_DDOT":0}]
